{
  "type": "FeatureCollection",
  "features": [
    {
      "type": "Feature",
      "properties": {
        "norad_id": 31255,
        "name": "FENGYUN 1C DEB",
        "group": "fengyun-1c-debris",
        "lat": -71.11399946891208,
        "lon": -157.68896900226818,
        "alt_km": 697.443564954202,
        "timestamp": "2025-12-22T05:49:03.780953+00:00",
        "meta_object_name": "FENGYUN 1C DEB",
        "meta_object_id": "1999-025BMM",
        "meta_epoch": "2025-12-21T18:13:31.126656",
        "meta_mean_motion": 14.09740913,
        "meta_eccentricity": 0.0270391,
        "meta_inclination": 99.3083,
        "meta_ra_of_asc_node": 173.1641,
        "meta_arg_of_pericenter": 318.3493,
        "meta_mean_anomaly": 39.7361,
        "meta_ephemeris_type": 0,
        "meta_classification_type": "U",
        "meta_norad_cat_id": 31255,
        "meta_element_set_no": 999,
        "meta_rev_at_epoch": 96928,
        "meta_bstar": 0.0002506,
        "meta_mean_motion_dot": 5.64e-06,
        "meta_mean_motion_ddot": 0,
        "tle_line1": "1 31255U 99025BMM 25355.75938804  .00000564  00000+0  25060-3 0  9995",
        "tle_line2": "2 31255  99.3083 173.1641 0270391 318.3493  39.7361 14.09740913969287"
      },
      "geometry": {
        "type": "Point",
        "coordinates": [
          -157.68896900226818,
          -71.11399946891208
        ]
      }
    },
    {
      "type": "Feature",
      "properties": {
        "norad_id": 31256,
        "name": "FENGYUN 1C DEB",
        "group": "fengyun-1c-debris",
        "lat": -62.61265590239223,
        "lon": -139.36753406475293,
        "alt_km": 1083.8053075168236,
        "timestamp": "2025-12-22T05:49:03.780964+00:00",
        "meta_object_name": "FENGYUN 1C DEB",
        "meta_object_id": "1999-025BMN",
        "meta_epoch": "2025-12-21T01:02:28.616064",
        "meta_mean_motion": 14.03364375,
        "meta_eccentricity": 0.03086001,
        "meta_inclination": 98.6795,
        "meta_ra_of_asc_node": 202.338,
        "meta_arg_of_pericenter": 90.5942,
        "meta_mean_anomaly": 273.0591,
        "meta_ephemeris_type": 0,
        "meta_classification_type": "U",
        "meta_norad_cat_id": 31256,
        "meta_element_set_no": 999,
        "meta_rev_at_epoch": 65098,
        "meta_bstar": 0.0014444613,
        "meta_mean_motion_dot": 3.404e-05,
        "meta_mean_motion_ddot": 0,
        "tle_line1": "1 31256U 99025BMN 25355.04338676  .00003404  00000+0  14445-2 0  9999",
        "tle_line2": "2 31256  98.6795 202.3380 0308600  90.5942 273.0591 14.03364375650988"
      },
      "geometry": {
        "type": "Point",
        "coordinates": [
          -139.36753406475293,
          -62.61265590239223
        ]
      }
    },
    {
      "type": "Feature",
      "properties": {
        "norad_id": 31258,
        "name": "FENGYUN 1C DEB",
        "group": "fengyun-1c-debris",
        "lat": -58.86240401372253,
        "lon": -48.28275397613346,
        "alt_km": 524.9931188350047,
        "timestamp": "2025-12-22T05:49:03.780974+00:00",
        "meta_object_name": "FENGYUN 1C DEB",
        "meta_object_id": "1999-025BMQ",
        "meta_epoch": "2025-12-20T21:43:49.544256",
        "meta_mean_motion": 15.15122008,
        "meta_eccentricity": 0.0007026,
        "meta_inclination": 98.8478,
        "meta_ra_of_asc_node": 145.1045,
        "meta_arg_of_pericenter": 313.3708,
        "meta_mean_anomaly": 197.9387,
        "meta_ephemeris_type": 0,
        "meta_classification_type": "U",
        "meta_norad_cat_id": 31258,
        "meta_element_set_no": 999,
        "meta_rev_at_epoch": 97234,
        "meta_bstar": 0.0063109,
        "meta_mean_motion_dot": 0.00120127,
        "meta_mean_motion_ddot": 0,
        "tle_line1": "1 31258U 99025BMQ 25354.90543454  .00120127  00000+0  63109-2 0  9990",
        "tle_line2": "2 31258  98.8478 145.1045 0007026 313.3708 197.9387 15.15122008972349"
      },
      "geometry": {
        "type": "Point",
        "coordinates": [
          -48.28275397613346,
          -58.86240401372253
        ]
      }
    },
    {
      "type": "Feature",
      "properties": {
        "norad_id": 31259,
        "name": "FENGYUN 1C DEB",
        "group": "fengyun-1c-debris",
        "lat": -1.4881665916759432,
        "lon": 75.76743734248453,
        "alt_km": 892.1557159530412,
        "timestamp": "2025-12-22T05:49:03.780984+00:00",
        "meta_object_name": "FENGYUN 1C DEB",
        "meta_object_id": "1999-025BMR",
        "meta_epoch": "2025-12-21T04:28:01.996608",
        "meta_mean_motion": 14.15072778,
        "meta_eccentricity": 0.00658948,
        "meta_inclination": 99.0092,
        "meta_ra_of_asc_node": 74.465,
        "meta_arg_of_pericenter": 172.7908,
        "meta_mean_anomaly": 207.999,
        "meta_ephemeris_type": 0,
        "meta_classification_type": "U",
        "meta_norad_cat_id": 31259,
        "meta_element_set_no": 999,
        "meta_rev_at_epoch": 95689,
        "meta_bstar": 0.0010631127,
        "meta_mean_motion_dot": 2.059e-05,
        "meta_mean_motion_ddot": 0,
        "tle_line1": "1 31259U 99025BMR 25355.18613422  .00002059  00000+0  10631-2 0  9990",
        "tle_line2": "2 31259  99.0092  74.4650 0065894 172.7908 207.9990 14.15072778956898"
      },
      "geometry": {
        "type": "Point",
        "coordinates": [
          75.76743734248453,
          -1.4881665916759432
        ]
      }
    },
    {
      "type": "Feature",
      "properties": {
        "norad_id": 31260,
        "name": "FENGYUN 1C DEB",
        "group": "fengyun-1c-debris",
        "lat": 80.38243348496442,
        "lon": 142.11515371867702,
        "alt_km": 795.6760310998361,
        "timestamp": "2025-12-22T05:49:03.780995+00:00",
        "meta_object_name": "FENGYUN 1C DEB",
        "meta_object_id": "1999-025BMS",
        "meta_epoch": "2025-12-19T04:32:41.765856",
        "meta_mean_motion": 14.36461304,
        "meta_eccentricity": 0.00466618,
        "meta_inclination": 98.9573,
        "meta_ra_of_asc_node": 250.3857,
        "meta_arg_of_pericenter": 273.4525,
        "meta_mean_anomaly": 240.9944,
        "meta_ephemeris_type": 0,
        "meta_classification_type": "U",
        "meta_norad_cat_id": 31260,
        "meta_element_set_no": 999,
        "meta_rev_at_epoch": 97286,
        "meta_bstar": 0.00072733999,
        "meta_mean_motion_dot": 2.112e-05,
        "meta_mean_motion_ddot": 0,
        "tle_line1": "1 31260U 99025BMS 25353.18937229  .00002112  00000+0  72734-3 0  9997",
        "tle_line2": "2 31260  98.9573 250.3857 0046661 273.4525 240.9944 14.36461304972862"
      },
      "geometry": {
        "type": "Point",
        "coordinates": [
          142.11515371867702,
          80.38243348496442
        ]
      }
    },
    {
      "type": "Feature",
      "properties": {
        "norad_id": 31261,
        "name": "FENGYUN 1C DEB",
        "group": "fengyun-1c-debris",
        "lat": -53.58351068656461,
        "lon": 117.7208118577021,
        "alt_km": 734.1316827632454,
        "timestamp": "2025-12-22T05:49:03.781005+00:00",
        "meta_object_name": "FENGYUN 1C DEB",
        "meta_object_id": "1999-025BMT",
        "meta_epoch": "2025-12-21T20:23:42.052128",
        "meta_mean_motion": 14.40131094,
        "meta_eccentricity": 0.0050037,
        "meta_inclination": 99.0168,
        "meta_ra_of_asc_node": 309.7375,
        "meta_arg_of_pericenter": 205.3724,
        "meta_mean_anomaly": 154.5005,
        "meta_ephemeris_type": 0,
        "meta_classification_type": "U",
        "meta_norad_cat_id": 31261,
        "meta_element_set_no": 999,
        "meta_rev_at_epoch": 97481,
        "meta_bstar": 0.00068348,
        "meta_mean_motion_dot": 2.142e-05,
        "meta_mean_motion_ddot": 0,
        "tle_line1": "1 31261U 99025BMT 25355.84979227  .00002142  00000+0  68348-3 0  9996",
        "tle_line2": "2 31261  99.0168 309.7375 0050037 205.3724 154.5005 14.40131094974816"
      },
      "geometry": {
        "type": "Point",
        "coordinates": [
          117.7208118577021,
          -53.58351068656461
        ]
      }
    },
    {
      "type": "Feature",
      "properties": {
        "norad_id": 31262,
        "name": "FENGYUN 1C DEB",
        "group": "fengyun-1c-debris",
        "lat": -44.36592192651158,
        "lon": -109.08738400163683,
        "alt_km": 873.4333612310011,
        "timestamp": "2025-12-22T05:49:03.781015+00:00",
        "meta_object_name": "FENGYUN 1C DEB",
        "meta_object_id": "1999-025BMU",
        "meta_epoch": "2025-12-16T18:59:36.733632",
        "meta_mean_motion": 14.18213534,
        "meta_eccentricity": 0.00549404,
        "meta_inclination": 99.0021,
        "meta_ra_of_asc_node": 74.3056,
        "meta_arg_of_pericenter": 86.7351,
        "meta_mean_anomaly": 42.7165,
        "meta_ephemeris_type": 0,
        "meta_classification_type": "U",
        "meta_norad_cat_id": 31262,
        "meta_element_set_no": 999,
        "meta_rev_at_epoch": 95766,
        "meta_bstar": 0.0012380836,
        "meta_mean_motion_dot": 2.539e-05,
        "meta_mean_motion_ddot": 0,
        "tle_line1": "1 31262U 99025BMU 25350.79139738  .00002539  00000+0  12381-2 0  9996",
        "tle_line2": "2 31262  99.0021  74.3056 0054940  86.7351  42.7165 14.18213534957664"
      },
      "geometry": {
        "type": "Point",
        "coordinates": [
          -109.08738400163683,
          -44.36592192651158
        ]
      }
    }
  ]
}